ONEWEB-0113             
1 48050U 21025J   23223.07738182  .00000365  00000+0  96330-3 0  9992
2 48050  87.9079 167.3522 0001955  85.3486 274.7867 13.13467714116915
ONEWEB-0112             
1 48051U 21025K   23222.60763302  .00000377  00000+0  99838-3 0  9992
2 48051  87.9082 167.3923 0002118  78.7490 281.3877 13.13469714116870
ONEWEB-0156             
1 48052U 21025L   23223.07526790 -.00000135  00000+0 -40379-3 0  9993
2 48052  87.9091 167.3360 0002012  81.4579 278.6778 13.13468908116916
ONEWEB-0161             
1 48053U 21025M   23222.36216559  .00000122  00000+0  29826-3 0  9992
2 48053  87.9076 167.4429 0002278  80.3787 279.7600 13.13468709116757
ONEWEB-0158             
1 48054U 21025N   23222.78325694  .00000003  00000+0 -26681-4 0  9996
2 48054  87.9087 167.4025 0001806  84.7194 275.4141 13.13471178116924
ONEWEB-0157             
1 48055U 21025P   23222.57800141 -.00000254  00000+0 -72995-3 0  9996
2 48055  87.9082 167.4012 0002271  77.6281 282.5102 13.13469660116841
ONEWEB-0162             
1 48056U 21025Q   23223.14933581  .00000385  00000+0  10204-2 0  9993
2 48056  87.9083 167.2877 0002101  79.3873 280.7493 13.13471641116865
ONEWEB-0155             
1 48057U 21025R   23223.39901711 -.00000075  00000+0 -24065-3 0  9990
2 48057  87.9083 167.2442 0002114  81.1056 279.0312 13.13471642117067
ONEWEB-0149             
1 48058U 21025S   23222.58224114 -.00000141  00000+0 -42167-3 0  9993
2 48058  87.9081 167.4036 0002063  68.8231 291.3118 13.13471115116769
ONEWEB-0148             
1 48059U 21025T   23222.39389960  .00000151  00000+0  37928-3 0  9992
2 48059  87.9085 167.4506 0002498  61.1412 298.9968 13.13470712116853
ONEWEB-0160             
1 48060U 21025U   23223.09642712 -.00000128  00000+0 -38406-3 0  9997
2 48060  87.9084 167.3093 0001057  94.5189 265.6061 13.13471872116892
ONEWEB-0163             
1 48061U 21025V   23222.39601733  .00000084  00000+0  19497-3 0  9996
2 48061  87.9084 167.4357 0002444  79.0712 281.0692 13.13467379116932
ONEWEB-0159             
1 48062U 21025W   23223.14722232  .00000341  00000+0  89844-3 0  9998
2 48062  87.9089 167.3126 0002456  75.6166 284.5236 13.13470486116945
ONEWEB-0164             
1 48063U 21025X   23222.36639895  .00000146  00000+0  36441-3 0  9992
2 48063  87.9084 167.4362 0002100  86.8684 273.2685 13.13468981116837
ONEWEB-0167             
1 48064U 21025Y   23223.38737046  .00000200  00000+0  51294-3 0  9997
2 48064  87.9085 167.2435 0002355  78.9444 281.1950 13.13471760116940
ONEWEB-0166             
1 48065U 21025Z   23223.10489835 -.00000137  00000+0 -40879-3 0  9996
2 48065  87.9077 167.2951 0002136  73.9914 286.1450 13.13470632116980
ONEWEB-0151             
1 48066U 21025AA  23222.42140267 -.00000538  00000+0 -15087-2 0  9991
2 48066  87.9086 167.4357 0002043  88.6945 271.4418 13.13470177116847
ONEWEB-0170             
1 48067U 21025AB  23222.58010423 -.00000492  00000+0 -13830-2 0  9992
2 48067  87.9085 167.4033 0001752 101.4327 258.6999 13.13470210116818
ONEWEB-0168             
1 48068U 21025AC  23223.09855450 -.00000194  00000+0 -56484-3 0  9999
2 48068  87.9087 167.3435 0002107  76.7442 283.3922 13.13468170116894
ONEWEB-0173             
1 48069U 21025AD  23222.40659717 -.00000135  00000+0 -40363-3 0  9996
2 48069  87.9086 167.4945 0002563  86.1862 273.9560 13.13468692117048
ONEWEB-0171             
1 48070U 21025AE  23222.36429188  .00000083  00000+0  19376-3 0  9990
2 48070  87.9089 167.4629 0002194  85.6610 274.4769 13.13468938116855
ONEWEB-0172             
1 48071U 21025AF  23222.80334870 -.00000250  00000+0 -71992-3 0  9993
2 48071  87.9079 167.3463 0002331  86.5205 273.6190 13.13470211117805
ONEWEB-0174             
1 48072U 21025AG  23222.40448324 -.00000106  00000+0 -32394-3 0  9993
2 48072  87.9077 167.4408 0002242  70.7141 289.4230 13.13464593117074
ONEWEB-0175             
1 48073U 21025AH  23222.58434554 -.00000090  00000+0 -28036-3 0  9993
2 48073  87.9079 167.3967 0002064  93.9984 266.1381 13.13468629116757
ONEWEB-0177             
1 48074U 21025AJ  23222.36850985  .00000286  00000+0  74861-3 0  9992
2 48074  87.9080 167.4423 0002680  80.4431 279.7001 13.13471542116915
ONEWEB-0178             
1 48075U 21025AK  23223.14827850  .00000339  00000+0  89304-3 0  9992
2 48075  87.9085 167.2962 0002337  78.8593 281.2799 13.13469746117068
ONEWEB-0108             
1 48076U 21025AL  23222.57588748 -.00000028  00000+0 -11118-3 0  9994
2 48076  87.9076 167.4023 0001936  77.5985 282.5361 13.13470274116925
ONEWEB-0169             
1 48077U 21025AM  23222.60550362  .00000300  00000+0  78728-3 0  9991
2 48077  87.9085 167.3961 0001851  70.3497 289.7832 13.13471224116817
ONEWEB-0176             
1 48210U 21031A   23223.03915009  .00000043  00000+0  82653-4 0  9995
2 48210  87.9045 136.9413 0001978  78.4939 281.6413 13.14504401112824
ONEWEB-0184             
1 48211U 21031B   23222.32869668 -.00000166  00000+0 -48358-3 0  9997
2 48211  87.9053 137.0611 0002333 107.9069 252.2315 13.14500344111415
ONEWEB-0179             
1 48212U 21031C   23223.05818150  .00000265  00000+0  68087-3 0  9998
2 48212  87.9052 136.9120 0002258  75.1407 284.9973 13.14502719111551
ONEWEB-0180             
1 48213U 21031D   23222.33082040 -.00000192  00000+0 -55206-3 0  9990
2 48213  87.9053 137.0580 0002262  76.6604 283.4778 13.14501592111347
ONEWEB-0218             
1 48214U 21031E   23222.73256479 -.00000043  00000+0 -15118-3 0  9997
2 48214  87.9044 136.9810 0002814 101.2481 258.8965 13.14503831111558
ONEWEB-0209             
1 48215U 21031F   23222.72198975 -.00000183  00000+0 -52923-3 0  9993
2 48215  87.9052 137.0226 0002126  75.7567 284.3799 13.14500424111551
ONEWEB-0198             
1 48216U 21031G   23223.01164591 -.00000085  00000+0 -26368-3 0  9999
2 48216  87.9052 136.9741 0002436  86.2231 273.9177 13.14500342111688
ONEWEB-0189             
1 48217U 21031H   23223.02433097 -.00000585  00000+0 -16112-2 0  9991
2 48217  87.9048 136.9512 0002511  83.2826 276.8589 13.14502381111449
ONEWEB-0196             
1 48218U 21031J   23222.77484639 -.00000093  00000+0 -28445-3 0  9998
2 48218  87.9054 136.9942 0002098  82.6842 277.4526 13.14503418111401
ONEWEB-0183             
1 48219U 21031K   23223.05182671  .00000164  00000+0  40902-3 0  9991
2 48219  87.9050 136.9587 0002115  75.7929 284.3435 13.14500988111542
ONEWEB-0185             
1 48220U 21031L   23223.30872716  .00000053  00000+0  10858-3 0  9991
2 48220  87.9052 136.8829 0002214  73.5552 286.5821 13.14505048111503
ONEWEB-0187             
1 48221U 21031M   23223.05498953  .00000189  00000+0  47518-3 0  9994
2 48221  87.9054 136.9612 0002152  77.0504 283.0866 13.14498890111488
ONEWEB-0192             
1 48222U 21031N   23222.72408434 -.00000213  00000+0 -60794-3 0  9994
2 48222  87.9051 136.9706 0002105  83.0207 277.1162 13.14498908111365
ONEWEB-0219             
1 48223U 21031P   23222.78117860 -.00000262  00000+0 -74017-3 0  9998
2 48223  87.9053 136.9926 0002226  76.4009 283.7368 13.14499396111578
ONEWEB-0202             
1 48224U 21031Q   23223.06452237  .00000213  00000+0  53948-3 0  9995
2 48224  87.9051 136.9555 0002904  92.9448 267.2014 13.14502705111594
ONEWEB-0204             
1 48225U 21031R   23223.02236721 -.00000096  00000+0 -29284-3 0  9997
2 48225  87.9052 136.9763 0001716  61.1834 298.9467 13.14504627111480
ONEWEB-0205             
1 48226U 21031S   23222.99895293  .00000160  00000+0  39836-3 0  9992
2 48226  87.9052 136.9500 0002281  79.3353 280.8034 13.14500133111494
ONEWEB-0206             
1 48227U 21031T   23222.74314230  .00000020  00000+0  18742-4 0  9992
2 48227  87.9050 136.9851 0002222  70.4464 289.6906 13.14502499111416
ONEWEB-0182             
1 48228U 21031U   23222.73678271 -.00000046  00000+0 -15830-3 0  9994
2 48228  87.9040 137.0623 0002562  82.3472 277.7948 13.14502051111624
ONEWEB-0186             
1 48229U 21031V   23223.05394319  .00000210  00000+0  53316-3 0  9991
2 48229  87.9050 136.9127 0002159  79.0435 281.0937 13.14501044111613
ONEWEB-0181             
1 48230U 21031W   23223.03067121 -.00000527  00000+0 -14557-2 0  9995
2 48230  87.9048 136.9882 0002082  81.4474 278.6892 13.14503128111465
ONEWEB-0188             
1 48231U 21031X   23222.99473829  .00000040  00000+0  72420-4 0  9999
2 48231  87.9046 136.9955 0002190  76.3434 283.7939 13.14501421111355
ONEWEB-0220             
1 48232U 21031Y   23223.03280098 -.00000052  00000+0 -17544-3 0  9990
2 48232  87.9054 136.9543 0002391  74.4960 285.6434 13.14501659111628
ONEWEB-0165             
1 48233U 21031Z   23223.06239942  .00000319  00000+0  82538-3 0  9995
2 48233  87.9053 136.9624 0002238  78.1139 282.0242 13.14505692111581
ONEWEB-0199             
1 48234U 21031AA  23223.04548745  .00000132  00000+0  32281-3 0  9991
2 48234  87.9047 136.9381 0002183  78.8748 281.2627 13.14501363111485
ONEWEB-0203             
1 48235U 21031AB  23223.03491296 -.00000031  00000+0 -11839-3 0  9995
2 48235  87.9047 136.9387 0001846  87.8991 272.2350 13.14501615111491
ONEWEB-0197             
1 48236U 21031AC  23223.02207582 -.00000428  00000+0 -11898-2 0  9992
2 48236  87.9052 136.9505 0001944  69.6010 290.5328 13.14503068111402
ONEWEB-0194             
1 48237U 21031AD  23223.06662435  .00000200  00000+0  50473-3 0  9998
2 48237  87.9050 136.9309 0001657  86.7176 273.4143 13.14505829111588
ONEWEB-0193             
1 48238U 21031AE  23223.00743355 -.00000008  00000+0 -55961-4 0  9990
2 48238  87.9053 136.9523 0002149  83.6763 276.4611 13.14501259111525
ONEWEB-0191             
1 48239U 21031AF  23223.01800699 -.00000167  00000+0 -48589-3 0  9990
2 48239  87.9049 136.9294 0001997  82.5024 277.6333 13.14501361111386
ONEWEB-0195             
1 48240U 21031AG  23222.99579646  .00000163  00000+0  40626-3 0  9991
2 48240  87.9053 136.9339 0002387  81.8358 278.3042 13.14504266111369
